KUIPER-00053            
1 64513U 25134P   25251.90643473  .00026659  00000+0  71472-3 0  9996
2 64513  51.8773 316.8502 0003517  14.8269 345.2820 15.37789581 13151
KUIPER-00054            
1 64514U 25134Q   25251.45877431  .00039795  00000+0  10570-2 0  9996
2 64514  51.8780 319.0929 0005300  20.2471 339.8726 15.37870300 13082
KUIPER-00055            
1 64515U 25134R   25251.88261199  .00025008  00000+0  65854-3 0  9990
2 64515  51.8780 316.6995 0002484  14.1561 345.9495 15.38381725 13159
KUIPER-00056            
1 64516U 25134S   25251.91668981 -.00001213  00000+0 -23618-4 0  9992
2 64516  51.8754 317.0648 0006175  25.0044 258.8929 15.35489575  1306
KUIPER-00057            
1 64517U 25134T   25251.91668981 -.00012782  00000+0 -61499-3 0  9994
2 64517  51.8788 319.1051 0011828  25.3946 311.9432 15.17426558  5160
KUIPER-00058            
1 64518U 25134U   25251.91668981 -.00001219  00000+0 -28364-4 0  9993
2 64518  51.8756 317.4604 0007479  35.0894  59.0025 15.30635061  5599
KUIPER-00059            
1 64519U 25134V   25251.88587390  .00024019  00000+0  63236-3 0  9991
2 64519  51.8770 316.7160 0003506  14.0238 346.0846 15.38410443 13155
KUIPER-00060            
1 64520U 25134W   25251.89450850  .00030485  00000+0  80229-3 0  9999
2 64520  51.8780 316.7746 0004010   8.6349 351.4707 15.38287955 13146
